SatCatId,ObjectName,LaunchYear,OrbitalPeriod,LaunchMass,StatusCode,Inclination,Status,UcsData,OrbitClassEstimated,LaunchSiteCountry,Owner,UseType,Purpose,LaunchVehicleClass,TLE1,TLE2,MeanMotion,Eccentricity,OrbitClass
47361,STARLINK-2071,2021,95.59,260.0,+,53.06,Active,1,LEO,USA,USA,Commercial,Communications,Falcon,1 47361U 21005N   24162.32633597  .00005395  00000+0  38072-3 0  9996,2 47361  53.0554  12.8479 0001666  94.7698 265.3481 15.06406389187397,15.06406389,0.0001666,LEO
47362,STARLINK-2076,2021,95.59,260.0,+,53.06,Active,1,LEO,USA,USA,Commercial,Communications,Falcon,1 47362U 21005P   24162.37150754  .00003854  00000+0  27748-3 0  9997,2 47362  53.0540  42.6472 0001402  97.3944 262.7205 15.06402115186980,15.06402115,0.0001402,LEO
47363,STARLINK-2077,2021,95.59,260.0,+,53.06,Active,1,LEO,USA,USA,Commercial,Communications,Falcon,1 47363U 21005Q   24162.37519203  .00002129  00000+0  16178-3 0  9995,2 47363  53.0559  42.6301 0002180  84.3466 275.7771 15.06400457186980,15.06400457,0.000218,LEO
47366,STARLINK-2081,2021,95.59,260.0,+,53.05,Active,1,LEO,USA,USA,Commercial,Communications,Falcon,1 47366U 21005T   24162.40099431  .00012299  00000+0  84251-3 0  9994,2 47366  53.0546  42.5159 0001354  91.6153 268.4991 15.06428492186987,15.06428492,0.0001354,LEO
47367,STARLINK-2082,2021,95.59,260.0,+,53.05,Active,1,LEO,USA,USA,Commercial,Communications,Falcon,1 47367U 21005U   24162.36043795  .00014487  00000+0  98926-3 0  9997,2 47367  53.0544  42.6971 0001091  98.3254 261.7859 15.06408385186981,15.06408385,0.0001091,LEO
47368,STARLINK-2084,2021,95.59,260.0,+,53.05,Active,1,LEO,USA,USA,Commercial,Communications,Falcon,1 47368U 21005V   24162.08767895  .00024442  00000+0  16528-2 0  9990,2 47368  53.0547  43.9216 0001482 100.4724 259.6432 15.06428335186948,15.06428335,0.0001482,LEO
47369,STARLINK-2085,2021,91.57,260.0,P,53.05,Active,1,LEO,USA,USA,Commercial,Communications,Falcon,1 47369U 21005W   24162.58334491  .00137223  00000+0  98886-3 0  9998,2 47369  53.0512 341.2309 0002556 297.0447 115.2426 15.72651132  6088,15.72651132,0.0002556,LEO
47370,STARLINK-2086,2021,95.59,260.0,+,53.06,Active,1,LEO,USA,USA,Commercial,Communications,Falcon,1 47370U 21005X   24162.24985102  .00002730  00000+0  20205-3 0  9998,2 47370  53.0542   3.1936 0001081  89.2063 270.9050 15.06404375187534,15.06404375,0.0001081,LEO
47371,STARLINK-2088,2021,95.59,260.0,+,53.05,Active,1,LEO,USA,USA,Commercial,Communications,Falcon,1 47371U 21005Y   24162.36781806  .00010669  00000+0  73392-3 0  9992,2 47371  53.0526  42.6617 0000842  98.6199 261.4886 15.06405922186988,15.06405922,8.42e-05,LEO
47372,STARLINK-2089,2021,95.59,260.0,+,53.06,Active,1,LEO,USA,USA,Commercial,Communications,Falcon,1 47372U 21005Z   24162.36279117  .00010442  00000+0  71881-3 0  9990,2 47372  53.0547  38.0042 0001743  75.7960 284.3222 15.06403184187040,15.06403184,0.0001743,LEO
47373,STARLINK-2092,2021,95.59,260.0,+,53.06,Active,1,LEO,USA,USA,Commercial,Communications,Falcon,1 47373U 21005AA  24162.36412801  .00007444  00000+0  51792-3 0  9997,2 47373  53.0543  42.6799 0001226  60.5726 299.5385 15.06410767186980,15.06410767,0.0001226,LEO
47374,STARLINK-2093,2021,95.59,260.0,+,53.05,Active,1,LEO,USA,USA,Commercial,Communications,Falcon,1 47374U 21005AB  24162.38256993  .00019421  00000+0  13188-2 0  9992,2 47374  53.0549  42.5700 0001180  97.5901 262.5222 15.06409219186982,15.06409219,0.000118,LEO
47375,STARLINK-2094,2021,95.59,260.0,+,53.06,Active,1,LEO,USA,USA,Commercial,Communications,Falcon,1 47375U 21005AC  24162.38993867  .00005864  00000+0  41223-3 0  9999,2 47375  53.0551  42.5655 0001407  96.7708 263.3441 15.06401714186987,15.06401714,0.0001407,LEO
47376,STARLINK-2096,2021,95.59,260.0,+,53.05,Active,1,LEO,USA,USA,Commercial,Communications,Falcon,1 47376U 21005AD  24162.06189978  .00005336  00000+0  37708-3 0  9992,2 47376  53.0546  44.0378 0001231 104.1887 255.9238 15.06372794186939,15.06372794,0.0001231,LEO
47377,STARLINK-2097,2021,95.59,260.0,+,53.05,Active,1,LEO,USA,USA,Commercial,Communications,Falcon,1 47377U 21005AE  24162.37886539  .00017242  00000+0  11731-2 0  9990,2 47377  53.0540  42.6138 0001115  79.6355 280.4760 15.06415420186981,15.0641542,0.0001115,LEO
47378,STARLINK-2098,2021,95.59,260.0,+,53.05,Active,1,LEO,USA,USA,Commercial,Communications,Falcon,1 47378U 21005AF  24161.84073071  .00017695  00000+0  12035-2 0  9991,2 47378  53.0549   5.0304 0001406  94.3667 265.7482 15.06409887187463,15.06409887,0.0001406,LEO
47379,STARLINK-2099,2021,95.59,260.0,+,53.05,Active,1,LEO,USA,USA,Commercial,Communications,Falcon,1 47379U 21005AG  24161.97984614  .00017069  00000+0  11616-2 0  9999,2 47379  53.0546   4.3959 0001444 100.3642 259.7510 15.06412841187483,15.06412841,0.0001444,LEO
47380,STARLINK-2100,2021,95.59,260.0,+,53.05,Active,1,LEO,USA,USA,Commercial,Communications,Falcon,1 47380U 21005AH  24162.27474347  .00010761  00000+0  73985-3 0  9992,2 47380  53.0547  13.0830 0000230   4.6672 355.4319 15.06417565187391,15.06417565,2.3e-05,LEO
47381,STARLINK-2101,2021,95.59,260.0,+,53.06,Active,1,LEO,USA,USA,Commercial,Communications,Falcon,1 47381U 21005AJ  24162.29087294  .00014064  00000+0  96095-3 0  9993,2 47381  53.0569  18.0943 0001620  93.0442 267.0732 15.06407797187323,15.06407797,0.000162,LEO
47382,STARLINK-2102,2021,95.59,260.0,+,53.06,Active,1,LEO,USA,USA,Commercial,Communications,Falcon,1 47382U 21005AK  24161.86928203  .00019478  00000+0  13221-2 0  9993,2 47382  53.0554  14.9013 0001488  94.0764 266.0395 15.06423611187328,15.06423611,0.0001488,LEO
47383,STARLINK-2103,2021,95.59,260.0,+,53.05,Active,1,LEO,USA,USA,Commercial,Communications,Falcon,1 47383U 21005AL  24161.98081695  .00013512  00000+0  92379-3 0  9997,2 47383  53.0542   4.6811 0001707  79.7815 280.3366 15.06419348187485,15.06419348,0.0001707,LEO
47384,STARLINK-2104,2021,95.59,260.0,+,53.05,Active,1,LEO,USA,USA,Commercial,Communications,Falcon,1 47384U 21005AM  24162.31900357  .00004974  00000+0  35253-3 0  9991,2 47384  53.0546  13.1204 0002468  98.4057 261.7212 15.06403626187397,15.06403626,0.0002468,LEO
47385,STARLINK-2105,2021,95.59,260.0,+,53.06,Active,1,LEO,USA,USA,Commercial,Communications,Falcon,1 47385U 21005AN  24162.31528377  .00009218  00000+0  63682-3 0  9993,2 47385  53.0543  12.8979 0001018  92.5749 267.5357 15.06404124187391,15.06404124,0.0001018,LEO
47386,STARLINK-2106,2021,95.59,260.0,+,53.06,Active,1,LEO,USA,USA,Commercial,Communications,Falcon,1 47386U 21005AP  24162.27842397  .00010948  00000+0  75253-3 0  9999,2 47386  53.0560  13.0638 0001766  61.5769 298.5398 15.06408973187399,15.06408973,0.0001766,LEO
47387,STARLINK-2108,2021,95.59,260.0,+,53.05,Active,1,LEO,USA,USA,Commercial,Communications,Falcon,1 47387U 21005AQ  24162.39730105  .00013331  00000+0  91202-3 0  9997,2 47387  53.0543  42.5321 0001708  89.6349 270.4836 15.06406568186986,15.06406568,0.0001708,LEO
47388,STARLINK-2109,2021,95.59,260.0,+,53.05,Active,1,LEO,USA,USA,Commercial,Communications,Falcon,1 47388U 21005AR  24161.94761970  .00025498  00000+0  17235-2 0  9992,2 47388  53.0546  44.5528 0001316  74.0087 286.1047 15.06421055186912,15.06421055,0.0001316,LEO
47389,STARLINK-2110,2021,95.59,260.0,+,53.06,Active,1,LEO,USA,USA,Commercial,Communications,Falcon,1 47389U 21005AS  24161.99274559  .00020632  00000+0  13992-2 0  9991,2 47389  53.0554  24.3386 0001251 106.8189 253.2937 15.06419788187201,15.06419788,0.0001251,LEO
47390,STARLINK-2111,2021,95.59,260.0,+,53.05,Active,1,LEO,USA,USA,Commercial,Communications,Falcon,1 47390U 21005AT  24162.38624594  .00016828  00000+0  11462-2 0  9997,2 47390  53.0549  42.5809 0002253  89.9239 270.2008 15.06391187186983,15.06391187,0.0002253,LEO
47391,STARLINK-2112,2021,95.59,260.0,+,53.06,Active,1,LEO,USA,USA,Commercial,Communications,Falcon,1 47391U 21005AU  24161.93100209  .00019418  00000+0  13181-2 0  9998,2 47391  53.0554  14.6241 0001537  76.5076 283.6085 15.06422232187334,15.06422232,0.0001537,LEO
47392,STARLINK-2113,2021,95.59,260.0,+,53.05,Active,1,LEO,USA,USA,Commercial,Communications,Falcon,1 47392U 21005AV  24161.86560071  .00018747  00000+0  12733-2 0  9994,2 47392  53.0548  14.9170 0001295  80.5315 279.5821 15.06422621187327,15.06422621,0.0001295,LEO
47393,STARLINK-2114,2021,95.59,260.0,+,53.05,Active,1,LEO,USA,USA,Commercial,Communications,Falcon,1 47393U 21005AW  24162.22363229  .00007752  00000+0  53856-3 0  9998,2 47393  53.0533 348.6690 0000758  96.2935 263.8140 15.06413684187724,15.06413684,7.58e-05,LEO
47394,STARLINK-2115,2021,95.59,260.0,+,53.06,Active,1,LEO,USA,USA,Commercial,Communications,Falcon,1 47394U 21005AX  24162.28812098 -.00003833  00000+0 -23866-3 0  9994,2 47394  53.0555   8.1853 0001234 100.9114 259.2014 15.06390846187464,15.06390846,0.0001234,LEO
47395,STARLINK-2117,2021,95.59,260.0,+,53.05,Active,1,LEO,USA,USA,Commercial,Communications,Falcon,1 47395U 21005AY  24161.97709015  .00013861  00000+0  94700-3 0  9999,2 47395  53.0545   4.4193 0001436  95.4219 264.6933 15.06422739187487,15.06422739,0.0001436,LEO
47396,STARLINK-2118,2021,91.09,260.0,P,53.05,Active,1,LEO,USA,USA,Commercial,Communications,Falcon,1 47396U 21005AZ  24162.58334491  .00229137  00000+0  11247-2 0  9999,2 47396  53.0506 327.0161 0007390 299.7537 100.9055 15.81017522188673,15.81017522,0.000739,LEO
47397,STARLINK-2119,2021,95.59,260.0,+,53.06,Active,1,LEO,USA,USA,Commercial,Communications,Falcon,1 47397U 21005BA  24162.08399149  .00007718  00000+0  53627-3 0  9994,2 47397  53.0556  43.9383 0001609  77.2454 282.8715 15.06414860186947,15.0641486,0.0001609,LEO
47398,STARLINK-2120,2021,95.59,260.0,+,53.06,Active,1,LEO,USA,USA,Commercial,Communications,Falcon,1 47398U 21005BB  24162.32266814  .00012870  00000+0  88115-3 0  9999,2 47398  53.0567  12.8648 0001832  87.6795 272.4404 15.06405886187398,15.06405886,0.0001832,LEO
